216P/LINEAR,e,9.0606,359.8088,151.3588,3.867788,0.1295717,0.44680187,245.9152,08/10.0/2021,2000,g 13.0,4.0
# From MPEC 2021-N06
217P/LINEAR,e,12.8643,125.4762,246.8484,3.950474,0.1255250,0.68884292,186.3168,08/10.0/2021,2000,g 12.0,4.0
# From MPEC 2020-K19
218P/LINEAR,e,2.7272,175.9660,59.7501,3.093330,0.1811610,0.62208915,56.1986,08/10.0/2021,2000,g 16.0,4.0
# From MPC100284
219P/LINEAR,e,11.5326,230.9668,107.4430,3.649405,0.1413745,0.35400813,230.3096,08/10.0/2021,2000,g 11.0,4.0
# From MPEC 2021-BE3
220P/McNaught,e,8.1288,150.1020,180.5362,3.115652,0.1792176,0.50171850,43.4373,08/10.0/2021,2000,g 15.0,4.0
# From MPEC 2021-J28
221P/LINEAR,e,11.4273,229.7032,40.1081,3.455832,0.1534176,0.49268999,340.0472,08/10.0/2021,2000,g 14.5,4.0
# From MPC 92277
222P/LINEAR,e,5.0976,6.7786,346.2485,2.899315,0.1996461,0.71467476,159.0458,08/10.0/2021,2000,g 20.0,4.0
# From MPEC 2021-F20
223P/Skiff,e,27.0252,346.7704,37.8148,4.159025,0.1162028,0.41605093,107.5336,08/10.0/2021,2000,g 14.5,4.0
# From MPC 75727
224P/LINEAR-NEAT,e,13.2970,40.1448,16.6683,3.445515,0.1541072,0.40696341,295.8949,08/10.0/2021,2000,g 15.5,4.0
# From MPC 75727
225P/LINEAR,e,21.3622,14.1952,3.8706,3.649938,0.1413435,0.63813570,257.0743,08/10.0/2021,2000,g 18.0,4.0
# From MPC106349
226P/Pigott-LINEAR-Kowalski,e,44.0257,54.0024,341.0391,3.767350,0.1347877,0.52856136,242.8017,08/10.0/2021,2000,g 12.5,4.0
# From MPC102956
227P/Catalina-LINEAR,e,6.5471,47.3696,92.1423,3.548639,0.1474387,0.51517015,220.9778,08/10.0/2021,2000,g 16.5,2.0
# From MPEC 2020-L06
228P/LINEAR,e,7.9120,30.9805,115.1466,4.170530,0.1157223,0.17632641,59.9822,08/10.0/2021,2000,g 14.5,2.0
# From MPC106349
229P/Gibbs,e,26.0920,157.9101,223.9657,3.929427,0.1265349,0.37720468,195.0262,08/10.0/2021,2000,g 13.0,4.0
# From MPEC 2021-P47
230P/LINEAR,e,15.4728,106.9994,313.3952,3.453924,0.1535447,0.54580267,326.0248,08/10.0/2021,2000,g 13.0,4.0
# From MPEC 2020-K19
231P/LINEAR-NEAT,e,12.3355,133.0139,43.5468,4.030048,0.1218256,0.24712031,95.6081,08/10.0/2021,2000,g 14.5,2.0
# From MPC112394
232P/Hill,e,14.6352,56.0152,53.3815,4.479164,0.1039701,0.33417434,89.1296,08/10.0/2021,2000,g 11.5,4.0
# From MPEC 2021-N06
233P/La Sagra,e,11.2840,74.9204,27.0327,3.030264,0.1868458,0.41181332,58.3677,08/10.0/2021,2000,g 15.0,4.0
# From MPC110497
234P/LINEAR,e,11.5322,179.5646,357.2430,3.800181,0.1330447,0.25495626,204.0760,08/10.0/2021,2000,g 12.0,4.0
# From MPC110497
235P/LINEAR,e,8.9556,203.2900,333.3670,3.962290,0.1249639,0.32429463,155.0704,08/10.0/2021,2000,g 12.0,4.0
# From MPC107688
236P/LINEAR,e,16.3379,245.6169,119.2384,3.729974,0.1368187,0.50900970,185.7604,08/10.0/2021,2000,g 14.0,4.0
# From MPC109593
237P/LINEAR,e,14.0157,245.3897,25.2243,3.512368,0.1497283,0.43447032,263.7989,08/10.0/2021,2000,g 14.5,2.0
# From MPC107688
238P/Read,e,1.2641,51.6322,324.4489,3.167007,0.1748761,0.25231743,307.5009,08/10.0/2021,2000,g 14.5,4.0
# From MPEC 2021-F20
239P/LINEAR,e,11.2968,255.9131,220.4411,4.470242,0.1042815,0.63006175,98.3938,08/10.0/2021,2000,g 17.5,2.0
# From MPEC 2021-F20
240P/NEAT,e,23.5123,74.9125,351.9553,3.866459,0.1296385,0.44901948,153.2928,08/10.0/2021,2000,g 12.1,4.0
# From MPEC 2021-P47
241P/LINEAR,e,21.1069,305.4830,111.4295,4.915631,0.0904347,0.60991864,1.3720,08/10.0/2021,2000,g 13.5,4.0
# From MPC 81861
242P/Spahr,e,32.4946,180.4079,245.9659,5.484694,0.0767318,0.27815009,264.8126,08/10.0/2021,2000,g  8.0,4.0
# From MPC111774
243P/NEAT,e,7.6404,87.6374,283.5369,3.830907,0.1314473,0.36020890,141.8818,08/10.0/2021,2000,g 12.5,4.0
# From MPEC 2021-O56
244P/Scotti,e,2.2594,353.9901,92.9953,4.894616,0.0910177,0.19884633,317.8111,08/10.0/2021,2000,g  9.0,4.0
# From MPEC 2020-K19
245P/WISE,e,21.1976,316.6471,316.8767,4.044699,0.1211643,0.45709886,154.9013,08/10.0/2021,2000,g 14.0,4.0
# From MPEC 2021-P47
246P/NEAT,e,15.9831,78.7424,176.3492,4.018928,0.1223316,0.28735837,20.5478,08/10.0/2021,2000,g 10.5,4.0
# From MPEC 2021-F20
247P/LINEAR,e,13.6534,54.0096,47.4658,3.969204,0.1246376,0.62420789,122.4661,08/10.0/2021,2000,g 16.5,2.0
# From MPC 75730
248P/Gibbs,e,6.3490,207.7747,209.8608,5.991727,0.0672010,0.63835447,259.3276,08/10.0/2021,2000,g 14.0,4.0
# From MPEC 2021-BE3
249P/LINEAR,e,8.3936,239.1595,65.6392,2.762755,0.2146301,0.82008849,87.2470,08/10.0/2021,2000,g 15.5,4.0
# From MPC110497
250P/Larson,e,13.1712,73.4971,46.1584,3.762697,0.1350377,0.40052345,174.1027,08/10.0/2021,2000,g 14.5,4.0
# From MPC104795
251P/LINEAR,e,23.3925,219.3770,31.2877,3.510958,0.1498186,0.50501221,222.6150,08/10.0/2021,2000,g 16.5,2.0
# From MPC xxxxx
252P/LINEAR,e,10.4098,190.9457,343.2997,3.049794,0.1850539,0.67194090,5.4955,08/10.0/2021,2000,g 15.0,4.0
# From MPEC 2020-FB5
253P/PANSTARRS,e,4.9434,146.8843,230.6372,3.466599,0.1527034,0.41397426,181.6422,08/10.0/2021,2000,g 14.5,4.0
# From MPEC 2021-F20
254P/McNaught,e,32.5727,129.1748,219.5212,4.612073,0.0995084,0.31976040,31.2610,08/10.0/2021,2000,g 11.0,4.0
# From NK 2214
255P/Levy,e,13.4325,275.8353,185.8810,2.944378,0.1950804,0.71244575,283.2766,08/10.0/2021,2000,g  9.0,4.0
# From MPC 84027
256P/LINEAR,e,27.6258,81.3500,124.2529,4.637749,0.0986832,0.41804114,302.8190,08/10.0/2021,2000,g 14.0,2.0
# From MPEC 2021-F20
257P/Catalina,e,20.2228,207.7337,117.6595,3.761965,0.1350772,0.43043648,45.0166,08/10.0/2021,2000,g 14.1,4.0
# From MPEC 2021-N06
258P/PANSTARRS,e,6.7460,126.2480,26.0010,4.398531,0.1068421,0.20858618,44.5655,08/10.0/2021,2000,g 13.0,4.0
# From MPC106349
259P/Garradd,e,15.8906,51.4516,257.6403,2.730076,0.2184953,0.33858509,320.1462,08/10.0/2021,2000,g 15.5,4.0
# From MPEC 2020-SI8
260P/McNaught,e,15.0575,349.3387,18.4104,3.622850,0.1429317,0.60916847,100.0285,08/10.0/2021,2000,g 13.5,4.0
# From MPEC 2021-J28
261P/Larson,e,6.0750,291.1573,67.1617,3.490201,0.1511570,0.42325189,118.3561,08/10.0/2021,2000,g 14.0,4.0
# From MPC 82322
262P/McNaught-Russell,e,29.2252,217.8818,171.0148,6.874215,0.0546852,0.81571381,173.5390,08/10.0/2021,2000,g 13.5,4.0
# From MPC 89018
263P/Gibbs,e,11.5297,105.6793,34.6667,3.048536,0.1851685,0.59269559,260.2424,08/10.0/2021,2000,g  9.0,4.0
# From MPC114608
264P/Larsen,e,25.1529,220.6178,346.7306,3.894190,0.1282562,0.37494864,94.4231,08/10.0/2021,2000,g 13.0,4.0
# From MPC 79870
265P/LINEAR,e,14.3650,342.9261,33.4332,4.252084,0.1124091,0.64745877,20.4521,08/10.0/2021,2000,g 14.5,4.0
# From MPEC 2021-F20
266P/Christensen,e,3.4270,4.9975,97.7747,3.533916,0.1483610,0.33944235,70.8732,08/10.0/2021,2000,g 14.7,4.0
# From MPC114608
267P/LONEOS,e,6.1391,228.6159,114.1529,3.211751,0.1712345,0.61431998,190.7395,08/10.0/2021,2000,g 19.5,4.0
# From MPC 92277
268P/Bernardi,e,16.1225,127.5523,359.8770,4.544112,0.1017491,0.47565540,234.1992,08/10.0/2021,2000,g 14.0,4.0
# From MPC104795
269P/Jedicke,e,7.0733,241.7116,225.8476,7.076105,0.0523616,0.43050717,131.2650,08/10.0/2021,2000,g 10.0,4.0
# From MPC 88332
270P/Gehrels,e,2.9201,222.9836,209.8197,6.665101,0.0572788,0.46760918,171.0310,08/10.0/2021,2000,g  8.0,4.0
# From MPC 92277
271P/van Houten-Lemmon,e,6.8706,9.3108,36.3913,7.042640,0.0527352,0.39437116,155.6098,08/10.0/2021,2000,g 11.0,4.0
# From MPC 81862
272P/NEAT,e,18.0760,109.4677,27.9307,4.457260,0.1047375,0.45437244,324.2666,08/10.0/2021,2000,g 16.0,2.0
# From MPC 82723
273P/Pons-Gambart,e,136.7962,320.4012,20.3306,31.84557,0.0054844,0.97412483,0.0000,12/18.5355/2012,2000,g 11.5,4.0
# From MPC 88332
274P/Tombaugh-Tenagra,e,15.8171,81.3397,38.4832,4.373220,0.1077710,0.43906369,333.9705,08/10.0/2021,2000,g 13.0,4.0
# From MPC 81862
275P/Hermann,e,21.2742,348.7570,174.0546,5.773372,0.0710493,0.71239280,224.2539,08/10.0/2021,2000,g 17.0,4.0
# From MPEC 2020-K19
276P/Vorobjov,e,14.8109,211.3891,199.6835,5.318523,0.0803558,0.26727794,261.7142,08/10.0/2021,2000,g 11.5,4.0
# From MPEC 2021-F20
277P/LINEAR,e,16.7777,276.3433,152.3144,3.853177,0.1303094,0.50576053,29.0366,08/10.0/2021,2000,g 15.1,4.0
# From MPEC 2021-N06
278P/McNaught,e,6.6895,15.3916,238.0438,3.694912,0.1387707,0.43564816,46.0812,08/10.0/2021,2000,g 14.0,4.0
# From MPC100285
279P/La Sagra,e,5.0525,346.2340,5.7996,3.573975,0.1458736,0.39854160,269.9143,08/10.0/2021,2000,g 14.0,4.0
# From MPC 89013
280P/Larsen,e,11.7753,131.3928,104.7891,4.529489,0.1022422,0.41757303,285.9080,08/10.0/2021,2000,g 12.5,4.0
# From MPC 83145
281P/MOSS,e,4.7194,87.1778,26.7271,4.872287,0.0916442,0.17195478,310.4000,08/10.0/2021,2000,g 11.0,4.0
# From MPC xxxxx
282P/,e,5.8115,9.2956,217.6253,4.241664,0.1128235,0.18876164,351.4712,08/10.0/2021,2000,g 13.5,2.0
# From MPEC 2021-BE3
283P/Spacewatch,e,14.4551,161.1290,22.2517,4.139157,0.1170405,0.48487213,356.6032,08/10.0/2021,2000,g 16.0,2.0
# From MPEC 2021-P47
284P/McNaught,e,11.8615,144.2633,202.4600,3.679926,0.1396193,0.37614823,355.2879,08/10.0/2021,2000,g 13.0,4.0
# From MPC 85339
285P/LINEAR,e,25.0372,185.5029,178.4214,4.508037,0.1029729,0.61844130,306.4101,08/10.0/2021,2000,g 15.0,4.0
# From MPEC 2021-O56
286P/Christensen,e,17.0453,283.9579,24.8419,4.109058,0.1183289,0.42536244,327.3867,08/10.0/2021,2000,g 14.0,4.0
# From MPC 96868
287P/Christensen,e,16.3199,139.0455,188.9556,4.165099,0.1159488,0.27097606,279.6147,08/10.0/2021,2000,g 13.5,4.0
# From MPC xxxxx
288P/,e,3.2386,83.1775,280.4081,3.051139,0.1849316,0.20150779,322.1681,08/10.0/2021,2000,g 16.0,2.0
# From MPEC 2021-F20
289P/Blanpain,e,5.8952,68.8847,9.8590,3.046747,0.1853316,0.68546721,110.8371,08/10.0/2021,2000,g 19.0,4.0
# From MPC 95214
290P/Jager,e,20.1447,302.6910,181.9415,6.208802,0.0637078,0.62920540,174.8654,08/10.0/2021,2000,g 10.5,4.0
# From MPEC 2021-N06
291P/NEAT,e,6.3045,238.0151,173.7433,4.526774,0.1023342,0.43551667,295.1465,08/10.0/2021,2000,g 13.0,4.0
# From MPC115887
292P/Li,e,24.2636,90.9746,319.4577,6.106672,0.0653126,0.58846795,179.4911,08/10.0/2021,2000,g 12.5,4.0
# From MPEC 2021-L04
293P/Spacewatch,e,9.0564,78.4064,41.0401,3.643569,0.1417143,0.41824429,33.1308,08/10.0/2021,2000,g 14.5,4.0
# From MPEC 2020-SI8
294P/LINEAR,e,18.2075,312.5598,235.3383,3.200932,0.1721033,0.59738487,106.3576,08/10.0/2021,2000,g 15.5,4.0
# From MPC 93589
